[
{"id":"1","district_id":"1","name":"Debidwar","bn_name":"দেবিদ্বার","url":"debidwar.comilla.gov.bd"},
{"id":"2","district_id":"1","name":"Barura","bn_name":"বরুড়া","url":"barura.comilla.gov.bd"},
{"id":"3","district_id":"1","name":"Brahmanpara","bn_name":"ব্রাহ্মণপাড়া","url":"brahmanpara.comilla.gov.bd"},
{"id":"4","district_id":"1","name":"Chandina","bn_name":"চান্দিনা","url":"chandina.comilla.gov.bd"},
{"id":"5","district_id":"1","name":"Chauddagram","bn_name":"চৌদ্দগ্রাম","url":"chauddagram.comilla.gov.bd"},
{"id":"6","district_id":"1","name":"Daudkandi","bn_name":"দাউদকান্দি","url":"daudkandi.comilla.gov.bd"},
{"id":"7","district_id":"1","name":"Homna","bn_name":"হোমনা","url":"homna.comilla.gov.bd"},
{"id":"8","district_id":"1","name":"Laksam","bn_name":"লাকসাম","url":"laksam.comilla.gov.bd"},
{"id":"9","district_id":"1","name":"Muradnagar","bn_name":"মুরাদনগর","url":"muradnagar.comilla.gov.bd"},
{"id":"10","district_id":"1","name":"Nangalkot","bn_name":"নাঙ্গলকোট","url":"nangalkot.comilla.gov.bd"},
{"id":"11","district_id":"1","name":"Comilla Sadar","bn_name":"কুমিল্লা সদর","url":"comillasadar.comilla.gov.bd"},
{"id":"12","district_id":"1","name":"Meghna","bn_name":"মেঘনা","url":"meghna.comilla.gov.bd"},
{"id":"13","district_id":"1","name":"Monohargonj","bn_name":"মনোহরগঞ্জ","url":"monohargonj.comilla.gov.bd"},
{"id":"14","district_id":"1","name":"Sadarsouth","bn_name":"সদর দক্ষিণ","url":"sadarsouth.comilla.gov.bd"},
{"id":"15","district_id":"1","name":"Titas","bn_name":"তিতাস","url":"titas.comilla.gov.bd"},
{"id":"16","district_id":"1","name":"Burichang","bn_name":"বুড়িচং","url":"burichang.comilla.gov.bd"},
{"id":"17","district_id":"1","name":"Lalmai","bn_name":"লালমাই","url":"lalmai.comilla.gov.bd"},
{"id":"18","district_id":"2","name":"Chhagalnaiya","bn_name":"ছাগলনাইয়া","url":"chhagalnaiya.feni.gov.bd"},
{"id":"19","district_id":"2","name":"Feni Sadar","bn_name":"ফেনী সদর","url":"sadar.feni.gov.bd"},
{"id":"20","district_id":"2","name":"Sonagazi","bn_name":"সোনাগাজী","url":"sonagazi.feni.gov.bd"},
{"id":"21","district_id":"2","name":"Fulgazi","bn_name":"ফুলগাজী","url":"fulgazi.feni.gov.bd"},
{"id":"22","district_id":"2","name":"Parshuram","bn_name":"পরশুরাম","url":"parshuram.feni.gov.bd"},
{"id":"23","district_id":"2","name":"Daganbhuiyan","bn_name":"দাগনভূঞা","url":"daganbhuiyan.feni.gov.bd"},
{"id":"24","district_id":"3","name":"Brahmanbaria Sadar","bn_name":"ব্রাহ্মণবাড়িয়া সদর","url":"sadar.brahmanbaria.gov.bd"},
{"id":"25","district_id":"3","name":"Kasba","bn_name":"কসবা","url":"kasba.brahmanbaria.gov.bd"},
{"id":"26","district_id":"3","name":"Nasirnagar","bn_name":"নাসিরনগর","url":"nasirnagar.brahmanbaria.gov.bd"},
{"id":"27","district_id":"3","name":"Sarail","bn_name":"সরাইল","url":"sarail.brahmanbaria.gov.bd"},
{"id":"28","district_id":"3","name":"Ashuganj","bn_name":"আশুগঞ্জ","url":"ashuganj.brahmanbaria.gov.bd"},
{"id":"29","district_id":"3","name":"Akhaura","bn_name":"আখাউড়া","url":"akhaura.brahmanbaria.gov.bd"},
{"id":"30","district_id":"3","name":"Nabinagar","bn_name":"নবীনগর","url":"nabinagar.brahmanbaria.gov.bd"},
{"id":"31","district_id":"3","name":"Bancharampur","bn_name":"বাঞ্ছারামপুর","url":"bancharampur.brahmanbaria.gov.bd"},
{"id":"32","district_id":"3","name":"Bijoynagar","bn_name":"বিজয়নগর","url":"bijoynagar.brahmanbaria.gov.bd    "},
{"id":"33","district_id":"4","name":"Rangamati Sadar","bn_name":"রাঙ্গামাটি সদর","url":"sadar.rangamati.gov.bd"},
{"id":"34","district_id":"4","name":"Kaptai","bn_name":"কাপ্তাই","url":"kaptai.rangamati.gov.bd"},
{"id":"35","district_id":"4","name":"Kawkhali","bn_name":"কাউখালী","url":"kawkhali.rangamati.gov.bd"},
{"id":"36","district_id":"4","name":"Baghaichari","bn_name":"বাঘাইছড়ি","url":"baghaichari.rangamati.gov.bd"},
{"id":"37","district_id":"4","name":"Barkal","bn_name":"বরকল","url":"barkal.rangamati.gov.bd"},
{"id":"38","district_id":"4","name":"Langadu","bn_name":"লংগদু","url":"langadu.rangamati.gov.bd"},
{"id":"39","district_id":"4","name":"Rajasthali","bn_name":"রাজস্থলী","url":"rajasthali.rangamati.gov.bd"},
{"id":"40","district_id":"4","name":"Belaichari","bn_name":"বিলাইছড়ি","url":"belaichari.rangamati.gov.bd"},
{"id":"41","district_id":"4","name":"Juraichari","bn_name":"জুরাছড়ি","url":"juraichari.rangamati.gov.bd"},
{"id":"42","district_id":"4","name":"Naniarchar","bn_name":"নানিয়ারচর","url":"naniarchar.rangamati.gov.bd"},
{"id":"43","district_id":"5","name":"Noakhali Sadar","bn_name":"নোয়াখালী সদর","url":"sadar.noakhali.gov.bd"},
{"id":"44","district_id":"5","name":"Companiganj","bn_name":"কোম্পানীগঞ্জ","url":"companiganj.noakhali.gov.bd"},
{"id":"45","district_id":"5","name":"Begumganj","bn_name":"বেগমগঞ্জ","url":"begumganj.noakhali.gov.bd"},
{"id":"46","district_id":"5","name":"Hatia","bn_name":"হাতিয়া","url":"hatia.noakhali.gov.bd"},
{"id":"47","district_id":"5","name":"Subarnachar","bn_name":"সুবর্ণচর","url":"subarnachar.noakhali.gov.bd"},
{"id":"48","district_id":"5","name":"Kabirhat","bn_name":"কবিরহাট","url":"kabirhat.noakhali.gov.bd"},
{"id":"49","district_id":"5","name":"Senbug","bn_name":"সেনবাগ","url":"senbug.noakhali.gov.bd"},
{"id":"50","district_id":"5","name":"Chatkhil","bn_name":"চাটখিল","url":"chatkhil.noakhali.gov.bd"}]